     2              NAVIGATION DATA     GPS                 RINEX VERSION / TYPE
RINEXSLX2 2.9.0     HEMISPHERE          18-OCT-17 14:23     PGM / RUN BY / DATE 
    1.2107D-08  2.0862D-07 -2.2650D-06  5.3644D-06          ION ALPHA           
    1.3517D+05 -1.0977D+06  8.3231D+06 -8.3231D+06          ION BETA            
   -4.656612873000D-09-1.065814103640D-14   589824     1967 DELTA-UTC: A0,A1,T,W
    18                                                      LEAP SECONDS        
                                                            END OF HEADER       
24 17  9 22 13 59 44.0-3.996258601480D-05-4.547473508000D-13 0.000000000000D+00
    1.250000000000D+02 4.334375000000D+01 5.186287457275D-09 1.627329537832D+00
    2.188608050075D-06 5.951372323112D-03 3.019347786529D-06 5.153675341159D+03
    4.823840000000D+05-5.774199961900D-08-1.422207221050D+00 1.136213540890D-07
    9.437382808032D-01 3.110937500000D+02 4.665874063391D-01-8.705005453906D-09
    1.671498195720D-10 1.000000000000D+00 1.967000000000D+03 0.000000000000D+00
    2.000000000000D+00 0.000000000000D+00 2.793967723800D-09 1.250000000000D+02
    4.815960000000D+05 2.017000000000D+03 9.000000000000D+00 2.200000000000D+01
11 17  9 22 14  0  0.0-7.171174511194D-04-2.273736754000D-12 0.000000000000D+00
    1.160000000000D+02 5.918750000000D+01 6.435625211256D-09 7.257809132762D-01
    3.011897205933D-06 1.707334769495D-02 6.517395376351D-06 5.153724142581D+03
    4.824000000000D+05-2.142041921350D-07 1.349358984344D+00-1.247972249830D-07
    9.019775813946D-01 2.262500000000D+02 1.697530520406D+00-9.329674330896D-09
    4.468043253943D-10 1.000000000000D+00 1.967000000000D+03 0.000000000000D+00
    2.000000000000D+00 0.000000000000D+00-1.210719346980D-08 1.160000000000D+02
    4.815960000000D+05 2.017000000000D+03 9.000000000000D+00 2.200000000000D+01
32 17  9 22 14  0  0.0-5.035926587796D-04-5.343281371900D-12 0.000000000000D+00
    9.200000000000D+01 6.725000000000D+01 4.222675890597D-09-2.142569417004D+00
    3.624707459954D-06 1.416015321993D-03 1.124106347421D-05 5.153768829852D+03
    4.824000000000D+05-9.499490259900D-08-2.441669263502D+00-2.235174178800D-08
    9.579586783968D-01 1.631562500000D+02-2.560272289278D+00-7.825683112482D-09
    1.871506526832D-10 1.000000000000D+00 1.967000000000D+03 0.000000000000D+00
    2.000000000000D+00 0.000000000000D+00 9.313225746000D-10 9.200000000000D+01
    4.815960000000D+05 2.017000000000D+03 9.000000000000D+00 2.200000000000D+01
 3 17  9 22 13 59 44.0-6.489921361100D-05 4.433786670300D-12 0.000000000000D+00
    8.700000000000D+01-6.362500000000D+01 4.675194739738D-09 3.813902480284D-01
   -3.334134816710D-06 1.003845827422D-03 8.430331944374D-06 5.153653940707D+03
    4.823840000000D+05 4.470348357600D-08 2.802810317351D+00 2.048909663900D-08
    9.605227144334D-01 2.131875000000D+02 4.475431241544D-01-8.155339701083D-09
   -6.271689811291D-10 1.000000000000D+00 1.967000000000D+03 0.000000000000D+00
    2.000000000000D+00 0.000000000000D+00 2.328306436500D-09 8.700000000000D+01
    4.815960000000D+05 2.017000000000D+03 9.000000000000D+00 2.200000000000D+01
22 17  9 22 14  0  0.0-1.304065808632D-04-1.273292582240D-11 0.000000000000D+00
    1.100000000000D+02-6.853125000000D+01 5.483442692070D-09 2.888958666459D+00
   -3.559514879739D-06 7.252021923846D-03 7.731840013499D-06 5.153723478824D+03
    4.824000000000D+05 1.396983861750D-07 2.752473958514D+00-4.656612872500D-08
    9.243578185809D-01 2.065625000000D+02-1.674346734503D+00-8.451780620409D-09
   -6.235974037878D-10 1.000000000000D+00 1.967000000000D+03 0.000000000000D+00
    2.000000000000D+00 0.000000000000D+00-1.769512891740D-08 1.100000000000D+02
    4.816260000000D+05 2.017000000000D+03 9.000000000000D+00 2.200000000000D+01
17 17  9 22 14  0  0.0-1.554288901363D-04 2.614797267100D-12 0.000000000000D+00
    1.240000000000D+02 2.334375000000D+01 3.943021384775D-09-2.748173636211D+00
    1.233071088638D-06 1.186546985717D-02 1.166760921334D-05 5.153692064792D+03
    4.824000000000D+05 2.495944499660D-07 7.552912932215D-01-3.725290298000D-09
    9.810180358026D-01 1.612812500000D+02-1.844053551310D+00-7.525670615815D-09
    4.507330604698D-10 1.000000000000D+00 1.967000000000D+03 0.000000000000D+00
    2.000000000000D+00 0.000000000000D+00-1.117587089520D-08 1.240000000000D+02
    4.816260000000D+05 2.017000000000D+03 9.000000000000D+00 2.200000000000D+01
14 17  9 22 14  0  0.0-8.435547351697D-05-1.023181539300D-12 0.000000000000D+00
    1.120000000000D+02 8.037500000000D+01 4.075526904137D-09-3.065371021368D+00
    4.196539520697D-06 9.333956868091D-03 1.097470521791D-05 5.153703217059D+03
    4.824000000000D+05 4.097819327800D-08-2.357713132245D+00-2.980232238400D-08
    9.619151666746D-01 1.657812500000D+02-1.947030053356D+00-7.685320122970D-09
    2.767972439493D-10 1.000000000000D+00 1.967000000000D+03 0.000000000000D+00
    2.000000000000D+00 0.000000000000D+00-9.778887033300D-09 1.120000000000D+02
    4.816260000000D+05 2.017000000000D+03 9.000000000000D+00 2.200000000000D+01
28 17  9 22 13 59 44.0 6.479034200203D-04 3.069544617900D-12 0.000000000000D+00
    9.100000000000D+01-8.206250000000D+01 3.870161207013D-09-1.845947633772D+00
   -3.870576619622D-06 1.982900348499D-02 8.497387169738D-06 5.153657261401D+03
    4.823840000000D+05 2.924352883930D-07-2.562562190559D-01 3.632158040550D-07
    9.880287605587D-01 2.235937500000D+02-1.564483829405D+00-7.623888992700D-09
   -3.150131215011D-10 1.000000000000D+00 1.967000000000D+03 0.000000000000D+00
    2.000000000000D+00 0.000000000000D+00-1.117587089520D-08 3.470000000000D+02
    4.816260000000D+05 2.017000000000D+03 9.000000000000D+00 2.200000000000D+01
12 17  9 22 14  0  0.0 3.718510270057D-04-1.364242052400D-12 0.000000000000D+00
    1.230000000000D+02-7.818750000000D+01 3.930878021815D-09 9.208910874806D-02
   -4.190951585250D-06 6.541472974582D-03 8.836388586856D-06 5.153718664676D+03
    4.824000000000D+05-3.166496753300D-08-2.795817280737D-01 9.313225745000D-08
    9.887339426638D-01 2.301562500000D+02 9.147390619898D-01-7.896757501574D-09
   -3.003696544018D-10 1.000000000000D+00 1.967000000000D+03 0.000000000000D+00
    2.000000000000D+00 0.000000000000D+00-1.257285475710D-08 1.230000000000D+02
    4.817760000000D+05 2.017000000000D+03 9.000000000000D+00 2.200000000000D+01
12 17  9 22 16  0  0.0 3.718412481187D-04-1.364242052400D-12 0.000000000000D+00
    1.240000000000D+02-8.243750000000D+01 3.873375626620D-09 1.142325493829D+00
   -4.451721906110D-06 6.540267493925D-03 8.005648850402D-06 5.153716173679D+03
    4.896000000000D+05-5.774199961900D-08-2.796381103994D-01-9.313225745000D-09
    9.887314659435D-01 2.391875000000D+02 9.146524674800D-01-7.888542873689D-09
   -3.853731951243D-10 1.000000000000D+00 1.967000000000D+03 0.000000000000D+00
    2.000000000000D+00 0.000000000000D+00-1.257285475710D-08 1.240000000000D+02
    4.825260000000D+05 2.017000000000D+03 9.000000000000D+00 2.200000000000D+01
 6 17  9 22 16  0  0.0 3.993995487624D-04 2.842170942500D-12 0.000000000000D+00
    1.130000000000D+02 2.453125000000D+01 4.925205153628D-09 2.555988105887D+00
    1.428648829283D-06 5.540878045022D-04 4.483386873643D-06 5.153743271381D+03
    4.896000000000D+05 7.636845110900D-08 1.751566610768D+00-5.029141902300D-08
    9.679640037757D-01 2.954062500000D+02-1.133074889350D+00-8.358562451802D-09
    2.207234796912D-10 1.000000000000D+00 1.967000000000D+03 0.000000000000D+00
    2.000000000000D+00 0.000000000000D+00 4.656612873000D-09 1.130000000000D+02
    4.825260000000D+05 2.017000000000D+03 9.000000000000D+00 2.200000000000D+01
22 17  9 22 16  0  0.0-1.304978504755D-04-1.273292582240D-11 0.000000000000D+00
    1.110000000000D+02-6.403125000000D+01 5.467370594034D-09-2.344111415873D+00
   -3.328546881263D-06 7.251923320068D-03 7.817521690353D-06 5.153723507434D+03
    4.896000000000D+05 6.519258021500D-08 2.752412415014D+00 1.136213540890D-07
    9.243539199042D-01 2.049375000000D+02-1.674304538094D+00-8.425350948084D-09
   -4.832344142754D-10 1.000000000000D+00 1.967000000000D+03 0.000000000000D+00
    2.000000000000D+00 0.000000000000D+00-1.769512891740D-08 1.110000000000D+02
    4.825260000000D+05 2.017000000000D+03 9.000000000000D+00 2.200000000000D+01
24 17  9 22 16  0  0.0-3.996537998252D-05-4.547473508000D-13 0.000000000000D+00
    1.260000000000D+02 5.262500000000D+01 5.125570642473D-09 2.680062818324D+00
    2.723187207838D-06 5.952256497481D-03 3.380700945435D-06 5.153672421008D+03
    4.896000000000D+05-7.450580596000D-08-1.422270027049D+00-6.146728991700D-08
    9.437403639986D-01 3.050625000000D+02 4.663735277159D-01-8.557856467445D-09
    2.407243128024D-10 1.000000000000D+00 1.967000000000D+03 0.000000000000D+00
    2.000000000000D+00 0.000000000000D+00 2.793967723800D-09 1.260000000000D+02
    4.825260000000D+05 2.017000000000D+03 9.000000000000D+00 2.200000000000D+01
28 17  9 22 16  0  0.0 6.479253061008D-04 3.069544617900D-12 0.000000000000D+00
    9.200000000000D+01-7.743750000000D+01 3.968379583898D-09-7.934051295008D-01
   -3.945082425582D-06 1.982932188089D-02 9.076669811077D-06 5.153658207446D+03
    4.896000000000D+05-2.384185790720D-07-2.563139955425D-01 1.676380634100D-07
    9.880242562340D-01 2.254375000000D+02-1.564505543498D+00-8.165697275372D-09
   -2.475103097508D-10 1.000000000000D+00 1.967000000000D+03 0.000000000000D+00
    2.000000000000D+00 0.000000000000D+00-1.117587089520D-08 3.480000000000D+02
    4.825560000000D+05 2.017000000000D+03 9.000000000000D+00 2.200000000000D+01
